OBJECT_NAME,OBJECT_ID,EPOCH,MEAN_MOTION,ECCENTRICITY,INCLINATION,RA_OF_ASC_NODE,ARG_OF_PERICENTER,MEAN_ANOMALY,EPHEMERIS_TYPE,CLASSIFICATION_TYPE,NORAD_CAT_ID,ELEMENT_SET_NO,REV_AT_EPOCH,BSTAR,MEAN_MOTION_DOT,MEAN_MOTION_DDOT
STARLINK-37587,2026-154U,2026-07-18T14:00:01.999872,15.80882776,.00012133,53.1585,275.8145,78.6286,213.7592,0,U,69837,999,318,-.60572938E-4,-.12642E-3,0
STARLINK-37590,2026-154V,2026-07-18T14:00:01.999872,15.80881018,.00009941,53.1584,275.8058,76.0443,220.6200,0,U,69838,999,305,-.10023915E-3,-.20443E-3,0
STARLINK-37589,2026-154W,2026-07-18T14:00:01.999872,15.80876015,.00012676,53.1584,275.7969,80.3443,220.5924,0,U,69839,999,318,-.2842158E-4,-.6305E-4,0
STARLINK-37487,2026-154X,2026-07-18T14:00:01.999872,15.81926630,.00013043,53.1582,275.3162,59.2204,112.7811,0,U,69840,999,318,-.75964118E-2,-.1402151E-1,0
STARLINK-37433,2026-154Y,2026-07-18T14:00:01.999872,15.80796890,.00009522,53.1590,275.3159,36.8172,135.1422,0,U,69841,999,331,.52912402E-3,.104637E-2,0
STARLINK-37588,2026-154Z,2026-07-18T14:00:01.999872,15.82334371,.00011993,53.1578,275.2821,51.4693,136.7511,0,U,69842,999,321,-.96790192E-2,-.1800525E-1,0
STARLINK-37579,2026-154AA,2026-07-18T14:00:01.999872,15.81241044,.00007641,53.1583,275.2838,60.6075,126.7806,0,U,69843,999,321,-.29660226E-2,-.55918E-2,0
STARLINK-37584,2026-154AB,2026-07-18T14:00:01.999872,15.80800847,.00015621,53.1588,275.2755,47.4113,143.9898,0,U,69844,999,321,.47707092E-3,.94178E-3,0
STARLINK-37606,2026-154AC,2026-07-18T14:00:01.999872,15.80956925,.00012022,53.1584,275.2641,94.8208,101.6927,0,U,69845,999,321,-.11867325E-2,-.229701E-2,0
STARLINK-37603,2026-154AD,2026-07-18T14:00:01.999872,15.80815198,.00015232,53.1590,275.2570,50.3515,149.5216,0,U,69846,999,321,.44865413E-3,.88527E-3,0
STARLINK-37595,2026-154AE,2026-07-18T14:00:01.999872,15.80858432,.00010793,53.1589,275.2457,71.0577,134.0528,0,U,69847,999,322,-.5615353E-5,-.1806E-4,0
QIANFAN-219,2026-155A,2026-07-18T14:11:08.456640,14.26455418,.00308331,89.0064,60.5597,211.5197,148.4151,0,U,69848,999,186,.15687832E-4,.52E-6,0
QIANFAN-220,2026-155B,2026-07-17T20:03:36.390240,14.15144118,.00340039,89.0064,60.6507,211.1294,148.7880,0,U,69849,999,175,-.11202131E+1,-.2023166E-1,0
QIANFAN-221,2026-155C,2026-07-18T14:09:42.994080,14.26647820,.00306464,89.0063,60.5594,211.9530,147.9807,0,U,69850,999,186,.67337833E-4,.178E-5,0
QIANFAN-222,2026-155D,2026-07-17T19:58:00.985440,14.22185075,.00295553,89.0065,60.6495,214.6997,145.2267,0,U,69851,999,175,.15570034E-4,.49E-6,0
QIANFAN-223,2026-155E,2026-07-18T14:29:19.721472,14.22140309,.0029383,89.0065,60.5618,211.4089,148.5349,0,U,69852,999,186,.6526434E-4,.159E-5,0
QIANFAN-224,2026-155F,2026-07-17T21:29:45.028320,14.18497223,.00311144,89.0052,60.6399,224.5648,135.3039,0,U,69853,999,176,-.93450076E+0,-.1809487E-1,0
QIANFAN-225,2026-155G,2026-07-18T14:22:26.008032,14.22451084,.00292978,89.0063,60.5607,212.4211,147.5181,0,U,69854,999,186,.74118601E-4,.18E-5,0
QIANFAN-226,2026-155H,2026-07-18T14:20:24.359424,14.22559082,.00303286,89.0063,60.5606,212.0331,147.9018,0,U,69855,999,186,.6954698E-4,.17E-5,0
QIANFAN-227,2026-155J,2026-07-17T19:39:14.948064,14.20810576,.0029596,89.0057,60.6476,214.6719,145.2543,0,U,69856,999,175,-.10100914E+1,-.202495E-1,0
QIANFAN-228,2026-155K,2026-07-17T19:38:04.300512,14.20885407,.00307899,89.0054,60.6479,216.5012,143.4081,0,U,69857,999,175,-.96549469E+0,-.1944972E-1,0
QIANFAN-229,2026-155L,2026-07-18T14:08:57.696288,14.26690143,.00307835,89.0064,60.5595,211.5608,148.3741,0,U,69858,999,186,.65826628E-4,.174E-5,0
QIANFAN-230,2026-155M,2026-07-17T21:41:32.151840,14.16167691,.00329611,89.0054,60.6411,222.0372,137.8286,0,U,69859,999,176,-.10463152E+1,-.1931944E-1,0
QIANFAN-231,2026-155N,2026-07-18T14:14:25.557504,14.26097009,.00308583,89.0065,60.5602,210.9187,149.0191,0,U,69860,999,186,.73859419E-4,.192E-5,0
QIANFAN-232,2026-155P,2026-07-18T00:40:47.018208,14.26736537,.00305938,89.0063,60.6233,214.1355,145.7872,0,U,69861,999,178,.7652291E-4,.2E-5,0
QIANFAN-233,2026-155Q,2026-07-18T14:08:33.110304,14.26752541,.00306031,89.0064,60.5594,212.0165,147.9171,0,U,69862,999,186,.65881909E-4,.175E-5,0
QIANFAN-234,2026-155R,2026-07-18T14:08:27.961728,14.26759177,.00305785,89.0064,60.5595,212.0550,147.8785,0,U,69863,999,186,.69687736E-4,.184E-5,0
QIANFAN-235,2026-155S,2026-07-18T14:08:23.337600,14.26765060,.00305361,89.0064,60.5594,212.0780,147.8556,0,U,69864,999,186,.63940685E-4,.17E-5,0
QIANFAN-236,2026-155T,2026-07-18T14:08:19.339008,14.26770305,.00305044,89.0064,60.5594,212.1026,147.8312,0,U,69865,999,186,.7098117E-4,.187E-5,0
QIANFAN-237,2026-155U,2026-07-18T14:08:12.722496,14.26778511,.00304786,89.0064,60.5594,212.1377,147.7960,0,U,69866,999,185,.68132624E-4,.18E-5,0
