STARLINK-37587          
1 69837U 26154U   26199.58335648 -.00012642  00000+0 -60573-4 0  9991
2 69837  53.1585 275.8145 0001213  78.6286 213.7592 15.80882776  3181
STARLINK-37590          
1 69838U 26154V   26199.58335648 -.00020443  00000+0 -10024-3 0  9995
2 69838  53.1584 275.8058 0000994  76.0443 220.6200 15.80881018  3053
STARLINK-37589          
1 69839U 26154W   26199.58335648 -.00006305  00000+0 -28422-4 0  9999
2 69839  53.1584 275.7969 0001267  80.3443 220.5924 15.80876015  3183
STARLINK-37487          
1 69840U 26154X   26199.58335648 -.01402151  00000+0 -75964-2 0  9992
2 69840  53.1582 275.3162 0001304  59.2204 112.7811 15.81926630  3183
STARLINK-37433          
1 69841U 26154Y   26199.58335648  .00104637  00000+0  52912-3 0  9997
2 69841  53.1590 275.3159 0000952  36.8172 135.1422 15.80796890  3316
STARLINK-37588          
1 69842U 26154Z   26199.58335648 -.01800525  00000+0 -96790-2 0  9991
2 69842  53.1578 275.2821 0001199  51.4693 136.7511 15.82334371  3212
STARLINK-37579          
1 69843U 26154AA  26199.58335648 -.00559180  00000+0 -29660-2 0  9991
2 69843  53.1583 275.2838 0000764  60.6075 126.7806 15.81241044  3219
STARLINK-37584          
1 69844U 26154AB  26199.58335648  .00094178  00000+0  47707-3 0  9994
2 69844  53.1588 275.2755 0001562  47.4113 143.9898 15.80800847  3219
STARLINK-37606          
1 69845U 26154AC  26199.58335648 -.00229701  00000+0 -11867-2 0  9996
2 69845  53.1584 275.2641 0001202  94.8208 101.6927 15.80956925  3215
STARLINK-37603          
1 69846U 26154AD  26199.58335648  .00088527  00000+0  44865-3 0  9999
2 69846  53.1590 275.2570 0001523  50.3515 149.5216 15.80815198  3216
STARLINK-37595          
1 69847U 26154AE  26199.58335648 -.00001806  00000+0 -56154-5 0  9993
2 69847  53.1589 275.2457 0001079  71.0577 134.0528 15.80858432  3227
QIANFAN-219             
1 69848U 26155A   26199.59107010  .00000052  00000+0  15688-4 0  9992
2 69848  89.0064  60.5597 0030833 211.5197 148.4151 14.26455418  1868
QIANFAN-220             
1 69849U 26155B   26198.83583785 -.02023166  00000+0 -11202+1 0  9995
2 69849  89.0064  60.6507 0034003 211.1294 148.7880 14.15144118  1758
QIANFAN-221             
1 69850U 26155C   26199.59008095  .00000178  00000+0  67338-4 0  9996
2 69850  89.0063  60.5594 0030646 211.9530 147.9807 14.26647820  1866
QIANFAN-222             
1 69851U 26155D   26198.83195585  .00000049  00000+0  15570-4 0  9992
2 69851  89.0065  60.6495 0029555 214.6997 145.2267 14.22185075  1758
QIANFAN-223             
1 69852U 26155E   26199.60370048  .00000159  00000+0  65264-4 0  9995
2 69852  89.0065  60.5618 0029383 211.4089 148.5349 14.22140309  1861
QIANFAN-224             
1 69853U 26155F   26198.89566005 -.01809487  00000+0 -93450+0 0  9993
2 69853  89.0052  60.6399 0031114 224.5648 135.3039 14.18497223  1760
QIANFAN-225             
1 69854U 26155G   26199.59891213  .00000180  00000+0  74119-4 0  9990
2 69854  89.0063  60.5607 0029297 212.4211 147.5181 14.22451084  1869
QIANFAN-226             
1 69855U 26155H   26199.59750416  .00000170  00000+0  69547-4 0  9998
2 69855  89.0063  60.5606 0030328 212.0331 147.9018 14.22559082  1865
QIANFAN-227             
1 69856U 26155J   26198.81892301 -.02024950  00000+0 -10101+1 0  9997
2 69856  89.0057  60.6476 0029596 214.6719 145.2543 14.20810576  1756
QIANFAN-228             
1 69857U 26155K   26198.81810533 -.01944972  00000+0 -96549+0 0  9998
2 69857  89.0054  60.6479 0030789 216.5012 143.4081 14.20885407  1752
QIANFAN-229             
1 69858U 26155L   26199.58955667  .00000174  00000+0  65827-4 0  9996
2 69858  89.0064  60.5595 0030783 211.5608 148.3741 14.26690143  1868
QIANFAN-230             
1 69859U 26155M   26198.90384435 -.01931944  00000+0 -10463+1 0  9994
2 69859  89.0054  60.6411 0032961 222.0372 137.8286 14.16167691  1763
QIANFAN-231             
1 69860U 26155N   26199.59335136  .00000192  00000+0  73859-4 0  9997
2 69860  89.0065  60.5602 0030858 210.9187 149.0191 14.26097009  1868
QIANFAN-232             
1 69861U 26155P   26199.02832197  .00000200  00000+0  76523-4 0  9996
2 69861  89.0063  60.6233 0030593 214.1355 145.7872 14.26736537  1783
QIANFAN-233             
1 69862U 26155Q   26199.58927211  .00000175  00000+0  65882-4 0  9997
2 69862  89.0064  60.5594 0030603 212.0165 147.9171 14.26752541  1860
QIANFAN-234             
1 69863U 26155R   26199.58921252  .00000184  00000+0  69688-4 0  9995
2 69863  89.0064  60.5595 0030578 212.0550 147.8785 14.26759177  1863
QIANFAN-235             
1 69864U 26155S   26199.58915900  .00000170  00000+0  63941-4 0  9990
2 69864  89.0064  60.5594 0030536 212.0780 147.8556 14.26765060  1866
QIANFAN-236             
1 69865U 26155T   26199.58911272  .00000187  00000+0  70981-4 0  9999
2 69865  89.0064  60.5594 0030504 212.1026 147.8312 14.26770305  1864
QIANFAN-237             
1 69866U 26155U   26199.58903614  .00000180  00000+0  68133-4 0  9990
2 69866  89.0064  60.5594 0030478 212.1377 147.7960 14.26778511  1858
